STARLINK-31945          
1 59870U 24098N   26115.96766741  .00000370  00000+0  22961-4 0  9996
2 59870  43.0028   6.9335 0001236 279.9092  80.1620 15.27584322109123
STARLINK-31937          
1 59871U 24098P   26115.68362359 -.00003503  00000+0 -11779-3 0  9990
2 59871  43.0028   5.6422 0000413 244.8194 115.2615 15.27600426109114
STARLINK-31940          
1 59873U 24098R   26115.96044498 -.00000316  00000+0 -19685-5 0  9999
2 59873  43.0018   3.4192 0001092 254.6109 105.4622 15.27588262109161
STARLINK-31933          
1 59874U 24098S   26115.41982495  .00002956  00000+0  11694-3 0  9998
2 59874  43.0076  14.0266 0000672 281.1530  78.9246 15.27565489108994
STARLINK-31936          
1 59875U 24098T   26115.35475366 -.00002284  00000+0 -73457-4 0  9998
2 59875  43.0066 342.1240 0001850 259.7863 100.2781 15.27587633109348
STARLINK-31935          
1 59876U 24098U   26115.57244572  .00001311  00000+0  57160-4 0  9997
2 59876  43.0044  13.4513 0000716 266.7779  93.2990 15.27579941109010
STARLINK-31934          
1 59877U 24098V   26115.40488518  .00000918  00000+0  42870-4 0  9994
2 59877  43.0053  10.4513 0001558 276.6988  83.3687 15.27582122109035
STARLINK-31943          
1 59878U 24098W   26115.12274805  .00085417  00000+0  23429-2 0  9990
2 59878  43.0008  17.8258 0010212 222.2467 137.7602 15.36251207108272
STARLINK-31926          
1 59879U 24098X   26115.96999868  .00003515  00000+0  13723-3 0  9992
2 59879  43.0014   0.4768 0000653 283.7390  76.3389 15.27574038109191
STARLINK-31919          
1 59880U 24098Y   26115.42753234  .00000240  00000+0  18264-4 0  9998
2 59880  43.0084  14.0809 0001165 284.8722  75.2001 15.27585386108991
PREFIRE-2               
1 59881U 24099A   26115.56071513  .00003504  00000+0  16226-3 0  9999
2 59881  97.4132 332.6192 0013152  36.3564 323.8562 15.20694381106133
STARLINK-31974          
1 59885U 24100A   26115.74656810  .00003898  00000+0  15097-3 0  9996
2 59885  43.0044 219.6488 0001726 278.4654  81.6003 15.27605658108251
STARLINK-31975          
1 59886U 24100B   26115.61838553  .00004801  00000+0  18378-3 0  9999
2 59886  43.0022 220.4035 0001346 249.6813 110.3894 15.27595403108334
STARLINK-31976          
1 59887U 24100C   26115.65387916  .00001172  00000+0  52104-4 0  9990
2 59887  42.9981 224.0992 0000963 275.4587  84.6155 15.27581566108291
STARLINK-31965          
1 59888U 24100D   26115.69533451  .00030147  00000+0  10985-2 0  9995
2 59888  43.0040 220.1217 0003016 273.4604  86.5903 15.27640125108241
STARLINK-31969          
1 59889U 24100E   26115.28680698 -.00000154  00000+0  39301-5 0  9999
2 59889  42.9977 218.7554 0001301 251.0823 108.9888 15.27589579108321
STARLINK-31951          
1 59890U 24100F   26115.33885365 -.00001050  00000+0 -28643-4 0  9998
2 59890  43.0019 221.7430 0001110 276.6612  83.4113 15.27591472108194
STARLINK-31949          
1 59891U 24100G   26115.28503640  .00000389  00000+0  23646-4 0  9996
2 59891  43.0034 222.1941 0001195 261.0502  99.0214 15.27577517108181
STARLINK-31977          
1 59892U 24100H   26115.65776798  .00000724  00000+0  35842-4 0  9998
2 59892  43.0027 212.9160 0001122 257.1627 102.9100 15.27576192108421
STARLINK-31963          
1 59893U 24100J   26115.75686831  .00002900  00000+0  11483-3 0  9990
2 59893  43.0013 219.7216 0001341 248.4858 111.5850 15.27585545108358
STARLINK-31961          
1 59894U 24100K   26115.54497901 -.00000694  00000+0 -15700-4 0  9993
2 59894  42.9989 213.7856 0001539 270.3740  89.6935 15.27591202108408
STARLINK-31964          
1 59895U 24100L   26115.59011367  .00001410  00000+0  60733-4 0  9998
2 59895  43.0008 220.1842 0001060 284.5061  75.5673 15.27592177108283
STARLINK-31905          
1 59896U 24100M   26115.75476636  .00004201  00000+0  16199-3 0  9998
2 59896  43.0022 216.2455 0001830 266.8571  93.2072 15.27604374108395
STARLINK-31928          
1 59897U 24100N   26115.57228295  .00007497  00000+0  28151-3 0  9996
2 59897  42.9959 220.9152 0000326 232.1571 127.9251 15.27595767108225
STARLINK-31953          
1 59898U 24100P   26115.55476327  .00001734  00000+0  72523-4 0  9997
2 59898  43.0016 217.3250 0001627 265.8923  94.1743 15.27584545108368
STARLINK-31942          
1 59899U 24100Q   26115.34271166  .00000494  00000+0  27464-4 0  9995
2 59899  43.0009 221.7723 0001387 266.5347  93.5346 15.27580102108284
STARLINK-31676          
1 59900U 24100R   26115.62226901 -.00001719  00000+0 -52975-4 0  9994
2 59900  43.0025 220.4320 0000920 259.4117 100.6631 15.27565171108222
STARLINK-31908          
1 59901U 24100S   26115.73728893 -.00004496  00000+0 -15383-3 0  9990
2 59901  43.0035 212.6529 0002660 272.9251  87.1296 15.27598088108421
STARLINK-31914          
1 59902U 24100T   26115.56841994 -.00002305  00000+0 -74237-4 0  9991
2 59902  42.9997 220.8813 0001218 266.5165  93.5548 15.27599329108212
STARLINK-31850          
1 59903U 24100U   26115.33370769 -.00000933  00000+0 -24345-4 0  9994
2 59903  43.0015 221.6901 0003309 289.3107  70.7386 15.27586837108234
STARLINK-31924          
1 59904U 24100V   26115.34657924  .00001684  00000+0  70697-4 0  9990
2 59904  43.0029 221.8002 0000951 277.8287  82.2457 15.27581567108282
STARLINK-31898          
1 59905U 24100W   26115.55220222 -.00001429  00000+0 -42390-4 0  9999
2 59905  42.9991 217.3022 0001209 247.5382 112.5342 15.27598974108356
STARLINK-31861          
1 59906U 24100X   26115.73213714 -.00000658  00000+0 -14389-4 0  9998
2 59906  43.0005 212.5841 0000777 192.3929 167.6904 15.27585640108423
STARLINK-31920          
1 59907U 24100Y   26115.54986918  .00077639  00000+0  16841-2 0  9995
2 59907  42.9951 183.0221 0014124  47.5616 312.6433 15.43361807108740
EARTHCARE               
1 59908U 24101A   26115.86859322  .00013531  00000+0  18820-3 0  9991
2 59908  97.0439 243.0661 0001617  99.3079 260.8360 15.57087465108427
TIANQI-25               
1 59909U 24102A   26115.90091475 -.00000029  00000+0  68493-4 0  9996
2 59909  44.9753 134.6075 0011230 343.9766  16.0710 13.99152678 97582
TIANQI-26               
1 59910U 24102B   26115.88271024 -.00000011  00000+0  80612-4 0  9993
2 59910  44.9716 134.3004 0010019 346.4398  13.6164 13.99165324 97583
TIANQI-27               
1 59911U 24102C   26115.91754226 -.00000024  00000+0  72033-4 0  9990
2 59911  44.9763 134.0185 0006672 350.9939   9.0773 13.99134480 97588
TIANQI-28               
1 59912U 24102D   26115.93709064 -.00000039  00000+0  61719-4 0  9998
2 59912  44.9769 134.1639 0011371 354.4032   5.6672 13.99150065 97582
PAKSAT-MM1              
1 59915U 24104A   26114.57645397  .00000139  00000+0  00000+0 0  9991
2 59915   0.0162 199.0714 0002059 177.0607  82.1797  1.00273984  6997
2024-105A               
1 59917U 24105A   26115.96465475  .00004263  00000+0  22012-3 0  9998
2 59917  97.5866 131.1668 0014859  54.4935 305.7681 15.16764613105115
2024-105B               
1 59918U 24105B   26115.97201846  .00011857  00000+0  57870-3 0  9997
2 59918  97.5861 131.2464 0014125  70.4932 289.7826 15.18354093105129
2024-105C               
1 59919U 24105C   26115.95079796  .00005318  00000+0  25138-3 0  9990
2 59919  97.5817 132.7082 0013608  52.4357 307.8112 15.19753093105235
2024-105D               
1 59920U 24105D   26115.96675831  .00006836  00000+0  30161-3 0  9993
2 59920  97.5858 134.4421 0013035  49.0739 311.1623 15.22027681105313
2024-105E               
1 59921U 24105E   26115.96280830  .00004887  00000+0  23314-3 0  9991
2 59921  97.5827 132.6013 0013602  52.2007 308.0457 15.19482175105220
STARLINK-31872          
1 59922U 24106A   26115.34129138  .00003562  00000+0  13887-3 0  9991
2 59922  43.0025  69.3953 0001540 270.7968  89.2707 15.27590155107693
STARLINK-31972          
1 59923U 24106B   26115.58485422  .00001696  00000+0  71120-4 0  9990
2 59923  43.0043  67.7855 0001124 274.4732  85.5992 15.27589558107741
STARLINK-31958          
1 59924U 24106C   26115.52639435 -.00001181  00000+0 -33398-4 0  9996
2 59924  43.0047  53.5020 0000850 263.3574  96.7181 15.27587375107850
STARLINK-31959          
1 59925U 24106D   26115.55448234 -.00000156  00000+0  38420-5 0  9997
2 59925  42.9991  64.0147 0001077 276.8046  83.2683 15.27580071107730
STARLINK-31957          
1 59926U 24106E   26115.87580820  .00000101  00000+0  13194-4 0  9990
2 59926  43.0010  65.6685 0000958 275.6901  84.3841 15.27581132107796
STARLINK-31968          
1 59927U 24106F   26115.55659457 -.00002091  00000+0 -66508-4 0  9998
2 59927  43.0085  67.5704 0001742 269.9317  90.1335 15.27564099107742
STARLINK-31970          
1 59928U 24106G   26115.58099942 -.00000019  00000+0  88376-5 0  9994
2 59928  43.0026  67.7542 0000706 268.4703  91.6067 15.27579474107743
STARLINK-31932          
1 59929U 24106H   26115.27766488  .00048273  00000+0  17563-2 0  9997
2 59929  42.9975  66.2108 0001942 116.9698 243.1351 15.27504789107680
STARLINK-31956          
1 59930U 24106J   26115.24763316  .00001187  00000+0  52624-4 0  9995
2 59930  43.0028  69.5558 0000897 269.1401  90.9348 15.27583973107641
STARLINK-31960          
1 59931U 24106K   26115.55915320  .00000357  00000+0  22501-4 0  9993
2 59931  43.0016  67.5895 0001164 275.8760  84.1958 15.27577792107690
STARLINK-31432          
1 59932U 24106L   26115.91307378  .00156571  00000+0  55737-2 0  9997
2 59932  43.0021  65.9465 0001114 273.6275  86.4449 15.27614432107732
STARLINK-31853          
1 59933U 24106M   26115.25149506  .00000553  00000+0  29622-4 0  9996
2 59933  43.0023  69.5843 0001019 277.6288  82.4447 15.27577870107645
STARLINK-31971          
1 59934U 24106N   26115.54305311  .00000287  00000+0  19930-4 0  9992
2 59934  42.9954  64.7174 0001106 295.4796  64.5941 15.27581287107603
STARLINK-31962          
1 59936U 24106Q   26115.86182836  .00013911  00000+0  51497-3 0  9995
2 59936  43.0032  66.4167 0001635 250.9913 109.0762 15.27522314107735
